<?xml version="1.0" encoding="UTF-8"?>
<ndm xmlns:xsi="http://www.w3.org/2001/XMLSchema-instance" xsi:noNamespaceSchemaLocation="https://sanaregistry.org/r/ndmxml_unqualified/ndmxml-2.0.0-master-2.0.xsd">
<omm id="CCSDS_OMM_VERS" version="2.0">
<header><CREATION_DATE/><ORIGINATOR/></header><body><segment><metadata><OBJECT_NAME>ORBCOMM FM24</OBJECT_NAME><OBJECT_ID>1998-053D</OBJECT_ID><CENTER_NAME>EARTH</CENTER_NAME><REF_FRAME>TEME</REF_FRAME><TIME_SYSTEM>UTC</TIME_SYSTEM><MEAN_ELEMENT_THEORY>SGP4</MEAN_ELEMENT_THEORY></metadata><data><meanElements><EPOCH>2025-10-29T20:28:35.202144</EPOCH><MEAN_MOTION>14.38477783</MEAN_MOTION><ECCENTRICITY>.00037394</ECCENTRICITY><INCLINATION>45.0092</INCLINATION><RA_OF_ASC_NODE>350.4264</RA_OF_ASC_NODE><ARG_OF_PERICENTER>219.7537</ARG_OF_PERICENTER><MEAN_ANOMALY>140.3038</MEAN_ANOMALY></meanElements><tleParameters><EPHEMERIS_TYPE>0</EPHEMERIS_TYPE><CLASSIFICATION_TYPE>U</CLASSIFICATION_TYPE><NORAD_CAT_ID>25478</NORAD_CAT_ID><ELEMENT_SET_NO>999</ELEMENT_SET_NO><REV_AT_EPOCH>41683</REV_AT_EPOCH><BSTAR>.5528166E-3</BSTAR><MEAN_MOTION_DOT>.1562E-4</MEAN_MOTION_DOT><MEAN_MOTION_DDOT>0</MEAN_MOTION_DDOT></tleParameters></data></segment></body></omm>
<omm id="CCSDS_OMM_VERS" version="2.0">
<header><CREATION_DATE/><ORIGINATOR/></header><body><segment><metadata><OBJECT_NAME>ORBCOMM FM25</OBJECT_NAME><OBJECT_ID>1998-053E</OBJECT_ID><CENTER_NAME>EARTH</CENTER_NAME><REF_FRAME>TEME</REF_FRAME><TIME_SYSTEM>UTC</TIME_SYSTEM><MEAN_ELEMENT_THEORY>SGP4</MEAN_ELEMENT_THEORY></metadata><data><meanElements><EPOCH>2025-10-29T19:51:18.228384</EPOCH><MEAN_MOTION>14.38447567</MEAN_MOTION><ECCENTRICITY>.00061357</ECCENTRICITY><INCLINATION>45.0083</INCLINATION><RA_OF_ASC_NODE>348.8404</RA_OF_ASC_NODE><ARG_OF_PERICENTER>217.2167</ARG_OF_PERICENTER><MEAN_ANOMALY>142.8257</MEAN_ANOMALY></meanElements><tleParameters><EPHEMERIS_TYPE>0</EPHEMERIS_TYPE><CLASSIFICATION_TYPE>U</CLASSIFICATION_TYPE><NORAD_CAT_ID>25479</NORAD_CAT_ID><ELEMENT_SET_NO>999</ELEMENT_SET_NO><REV_AT_EPOCH>41712</REV_AT_EPOCH><BSTAR>.5560288E-3</BSTAR><MEAN_MOTION_DOT>.1571E-4</MEAN_MOTION_DOT><MEAN_MOTION_DDOT>0</MEAN_MOTION_DDOT></tleParameters></data></segment></body></omm>
<omm id="CCSDS_OMM_VERS" version="2.0">
<header><CREATION_DATE/><ORIGINATOR/></header><body><segment><metadata><OBJECT_NAME>ORBCOMM FM26</OBJECT_NAME><OBJECT_ID>1998-053F</OBJECT_ID><CENTER_NAME>EARTH</CENTER_NAME><REF_FRAME>TEME</REF_FRAME><TIME_SYSTEM>UTC</TIME_SYSTEM><MEAN_ELEMENT_THEORY>SGP4</MEAN_ELEMENT_THEORY></metadata><data><meanElements><EPOCH>2025-10-29T20:37:47.403552</EPOCH><MEAN_MOTION>14.37448997</MEAN_MOTION><ECCENTRICITY>.00081746</ECCENTRICITY><INCLINATION>45.0081</INCLINATION><RA_OF_ASC_NODE>346.1386</RA_OF_ASC_NODE><ARG_OF_PERICENTER>227.0614</ARG_OF_PERICENTER><MEAN_ANOMALY>132.9549</MEAN_ANOMALY></meanElements><tleParameters><EPHEMERIS_TYPE>0</EPHEMERIS_TYPE><CLASSIFICATION_TYPE>U</CLASSIFICATION_TYPE><NORAD_CAT_ID>25480</NORAD_CAT_ID><ELEMENT_SET_NO>999</ELEMENT_SET_NO><REV_AT_EPOCH>41702</REV_AT_EPOCH><BSTAR>.46988649E-3</BSTAR><MEAN_MOTION_DOT>.1277E-4</MEAN_MOTION_DOT><MEAN_MOTION_DDOT>0</MEAN_MOTION_DDOT></tleParameters></data></segment></body></omm>
<omm id="CCSDS_OMM_VERS" version="2.0">
<header><CREATION_DATE/><ORIGINATOR/></header><body><segment><metadata><OBJECT_NAME>ORBCOMM FM27</OBJECT_NAME><OBJECT_ID>1998-053G</OBJECT_ID><CENTER_NAME>EARTH</CENTER_NAME><REF_FRAME>TEME</REF_FRAME><TIME_SYSTEM>UTC</TIME_SYSTEM><MEAN_ELEMENT_THEORY>SGP4</MEAN_ELEMENT_THEORY></metadata><data><meanElements><EPOCH>2025-10-29T19:29:11.642784</EPOCH><MEAN_MOTION>14.38482651</MEAN_MOTION><ECCENTRICITY>.0002789</ECCENTRICITY><INCLINATION>45.0066</INCLINATION><RA_OF_ASC_NODE>349.0643</RA_OF_ASC_NODE><ARG_OF_PERICENTER>239.6944</ARG_OF_PERICENTER><MEAN_ANOMALY>120.3628</MEAN_ANOMALY></meanElements><tleParameters><EPHEMERIS_TYPE>0</EPHEMERIS_TYPE><CLASSIFICATION_TYPE>U</CLASSIFICATION_TYPE><NORAD_CAT_ID>25481</NORAD_CAT_ID><ELEMENT_SET_NO>999</ELEMENT_SET_NO><REV_AT_EPOCH>41705</REV_AT_EPOCH><BSTAR>.54280721E-3</BSTAR><MEAN_MOTION_DOT>.1531E-4</MEAN_MOTION_DOT><MEAN_MOTION_DDOT>0</MEAN_MOTION_DDOT></tleParameters></data></segment></body></omm>
<omm id="CCSDS_OMM_VERS" version="2.0">
<header><CREATION_DATE/><ORIGINATOR/></header><body><segment><metadata><OBJECT_NAME>ORBCOMM FM28</OBJECT_NAME><OBJECT_ID>1998-053H</OBJECT_ID><CENTER_NAME>EARTH</CENTER_NAME><REF_FRAME>TEME</REF_FRAME><TIME_SYSTEM>UTC</TIME_SYSTEM><MEAN_ELEMENT_THEORY>SGP4</MEAN_ELEMENT_THEORY></metadata><data><meanElements><EPOCH>2025-10-29T16:40:21.204768</EPOCH><MEAN_MOTION>14.38625620</MEAN_MOTION><ECCENTRICITY>.00065226</ECCENTRICITY><INCLINATION>45.0058</INCLINATION><RA_OF_ASC_NODE>286.9450</RA_OF_ASC_NODE><ARG_OF_PERICENTER>266.4277</ARG_OF_PERICENTER><MEAN_ANOMALY>93.5825</MEAN_ANOMALY></meanElements><tleParameters><EPHEMERIS_TYPE>0</EPHEMERIS_TYPE><CLASSIFICATION_TYPE>U</CLASSIFICATION_TYPE><NORAD_CAT_ID>25482</NORAD_CAT_ID><ELEMENT_SET_NO>999</ELEMENT_SET_NO><REV_AT_EPOCH>41772</REV_AT_EPOCH><BSTAR>.53646636E-3</BSTAR><MEAN_MOTION_DOT>.1517E-4</MEAN_MOTION_DOT><MEAN_MOTION_DDOT>0</MEAN_MOTION_DDOT></tleParameters></data></segment></body></omm>
<omm id="CCSDS_OMM_VERS" version="2.0">
<header><CREATION_DATE/><ORIGINATOR/></header><body><segment><metadata><OBJECT_NAME>ORBCOMM FM30</OBJECT_NAME><OBJECT_ID>1999-065A</OBJECT_ID><CENTER_NAME>EARTH</CENTER_NAME><REF_FRAME>TEME</REF_FRAME><TIME_SYSTEM>UTC</TIME_SYSTEM><MEAN_ELEMENT_THEORY>SGP4</MEAN_ELEMENT_THEORY></metadata><data><meanElements><EPOCH>2025-10-29T21:41:09.960000</EPOCH><MEAN_MOTION>14.37616057</MEAN_MOTION><ECCENTRICITY>.00069054</ECCENTRICITY><INCLINATION>45.0302</INCLINATION><RA_OF_ASC_NODE>171.9240</RA_OF_ASC_NODE><ARG_OF_PERICENTER>330.4910</ARG_OF_PERICENTER><MEAN_ANOMALY>29.5548</MEAN_ANOMALY></meanElements><tleParameters><EPHEMERIS_TYPE>0</EPHEMERIS_TYPE><CLASSIFICATION_TYPE>U</CLASSIFICATION_TYPE><NORAD_CAT_ID>25980</NORAD_CAT_ID><ELEMENT_SET_NO>999</ELEMENT_SET_NO><REV_AT_EPOCH>35383</REV_AT_EPOCH><BSTAR>.4122653E-3</BSTAR><MEAN_MOTION_DOT>.1107E-4</MEAN_MOTION_DOT><MEAN_MOTION_DDOT>0</MEAN_MOTION_DDOT></tleParameters></data></segment></body></omm>
<omm id="CCSDS_OMM_VERS" version="2.0">
<header><CREATION_DATE/><ORIGINATOR/></header><body><segment><metadata><OBJECT_NAME>ORBCOMM FM31</OBJECT_NAME><OBJECT_ID>1999-065B</OBJECT_ID><CENTER_NAME>EARTH</CENTER_NAME><REF_FRAME>TEME</REF_FRAME><TIME_SYSTEM>UTC</TIME_SYSTEM><MEAN_ELEMENT_THEORY>SGP4</MEAN_ELEMENT_THEORY></metadata><data><meanElements><EPOCH>2025-10-29T21:11:32.862336</EPOCH><MEAN_MOTION>14.37542878</MEAN_MOTION><ECCENTRICITY>.00045022</ECCENTRICITY><INCLINATION>45.0214</INCLINATION><RA_OF_ASC_NODE>165.4818</RA_OF_ASC_NODE><ARG_OF_PERICENTER>356.9241</ARG_OF_PERICENTER><MEAN_ANOMALY>3.1579</MEAN_ANOMALY></meanElements><tleParameters><EPHEMERIS_TYPE>0</EPHEMERIS_TYPE><CLASSIFICATION_TYPE>U</CLASSIFICATION_TYPE><NORAD_CAT_ID>25981</NORAD_CAT_ID><ELEMENT_SET_NO>999</ELEMENT_SET_NO><REV_AT_EPOCH>35338</REV_AT_EPOCH><BSTAR>.38855144E-3</BSTAR><MEAN_MOTION_DOT>.1033E-4</MEAN_MOTION_DOT><MEAN_MOTION_DDOT>0</MEAN_MOTION_DDOT></tleParameters></data></segment></body></omm>
<omm id="CCSDS_OMM_VERS" version="2.0">
<header><CREATION_DATE/><ORIGINATOR/></header><body><segment><metadata><OBJECT_NAME>ORBCOMM FM32</OBJECT_NAME><OBJECT_ID>1999-065C</OBJECT_ID><CENTER_NAME>EARTH</CENTER_NAME><REF_FRAME>TEME</REF_FRAME><TIME_SYSTEM>UTC</TIME_SYSTEM><MEAN_ELEMENT_THEORY>SGP4</MEAN_ELEMENT_THEORY></metadata><data><meanElements><EPOCH>2025-10-29T22:46:38.695008</EPOCH><MEAN_MOTION>14.36600843</MEAN_MOTION><ECCENTRICITY>.0007103</ECCENTRICITY><INCLINATION>45.0146</INCLINATION><RA_OF_ASC_NODE>182.6501</RA_OF_ASC_NODE><ARG_OF_PERICENTER>349.1677</ARG_OF_PERICENTER><MEAN_ANOMALY>10.9017</MEAN_ANOMALY></meanElements><tleParameters><EPHEMERIS_TYPE>0</EPHEMERIS_TYPE><CLASSIFICATION_TYPE>U</CLASSIFICATION_TYPE><NORAD_CAT_ID>25982</NORAD_CAT_ID><ELEMENT_SET_NO>999</ELEMENT_SET_NO><REV_AT_EPOCH>35397</REV_AT_EPOCH><BSTAR>.43563243E-3</BSTAR><MEAN_MOTION_DOT>.1151E-4</MEAN_MOTION_DOT><MEAN_MOTION_DDOT>0</MEAN_MOTION_DDOT></tleParameters></data></segment></body></omm>

</ndm>
