ORBCOMM FM24            
1 25478U 98053D   25302.85318521  .00001562  00000+0  55282-3 0  9994
2 25478  45.0092 350.4264 0003739 219.7537 140.3038 14.38477783416831
ORBCOMM FM25            
1 25479U 98053E   25302.82729431  .00001571  00000+0  55603-3 0  9995
2 25479  45.0083 348.8404 0006135 217.2167 142.8257 14.38447567417124
ORBCOMM FM26            
1 25480U 98053F   25302.85957643  .00001277  00000+0  46989-3 0  9998
2 25480  45.0081 346.1386 0008174 227.0614 132.9549 14.37448997417025
ORBCOMM FM27            
1 25481U 98053G   25302.81194031  .00001531  00000+0  54281-3 0  9996
2 25481  45.0066 349.0643 0002789 239.6944 120.3628 14.38482651417056
ORBCOMM FM28            
1 25482U 98053H   25302.69468987  .00001517  00000+0  53647-3 0  9996
2 25482  45.0058 286.9450 0006522 266.4277  93.5825 14.38625620417728
ORBCOMM FM30            
1 25980U 99065A   25302.90358750  .00001107  00000+0  41227-3 0  9999
2 25980  45.0302 171.9240 0006905 330.4910  29.5548 14.37616057353839
ORBCOMM FM31            
1 25981U 99065B   25302.88301924  .00001033  00000+0  38855-3 0  9999
2 25981  45.0214 165.4818 0004502 356.9241   3.1579 14.37542878353383
ORBCOMM FM32            
1 25982U 99065C   25302.94905897  .00001151  00000+0  43563-3 0  9999
2 25982  45.0146 182.6501 0007103 349.1677  10.9017 14.36600843353979
